{
"type": "FeatureCollection",
"name": "sickle_land",
"crs": { "type": "name", "properties": { "name": "urn:ogc:def:crs:OGC:1.3:CRS84" } },
"features": [
{ "type": "Feature", "properties": { "tile": "44PKT", "epsg": 32644, "utm_wkt": "POLYGON ((199980 1300020,199980 1190220,309780 1190220,309780 1300020,199980 1300020))", "utm_bounds": "(199980.0, 1190220.0, 309780.0, 1300020.0)" }, "geometry": { "type": "MultiPolygon", "coordinates": [ [ [ [ 78.247481511700002, 11.7467681596 ], [ 79.254415397, 11.7547042808 ], [ 79.260388017899999, 10.762151746900001 ], [ 78.256890798800001, 10.7549018533 ], [ 78.247481511700002, 11.7467681596 ] ] ] ] } },
{ "type": "Feature", "properties": { "tile": "44PKS", "epsg": 32644, "utm_wkt": "POLYGON ((199980 1200000,199980 1090200,309780 1090200,309780 1200000,199980 1200000))", "utm_bounds": "(199980.0, 1090200.0, 309780.0, 1200000.0)" }, "geometry": { "type": "MultiPolygon", "coordinates": [ [ [ [ 79.244076614416471, 10.186039132796022 ], [ 79.23813394979156, 10.169799012111003 ], [ 79.238710300793016, 10.156333353557272 ], [ 79.234763679254669, 10.157092036740094 ], [ 79.236804267101263, 10.1542859368398 ], [ 79.228222115016408, 10.147380711379094 ], [ 79.227566374503397, 10.13376003137971 ], [ 79.235557165636749, 10.127994975456987 ], [ 79.227080030201819, 10.119189889798879 ], [ 79.230204231521114, 10.118397597595886 ], [ 79.225801452668037, 10.10108043134753 ], [ 79.228527145157614, 10.090271897864758 ], [ 79.236615030698474, 10.076619086522637 ], [ 79.246019797936796, 10.073770855883225 ], [ 79.251957493979873, 10.06568747224309 ], [ 79.255452566560834, 10.045098214272077 ], [ 79.264340674419614, 10.040223842999669 ], [ 79.264350801035988, 10.038384739770414 ], [ 79.244313685209846, 10.027288515971032 ], [ 79.216490556681947, 9.997626933878438 ], [ 79.214783259975462, 10.000128939801758 ], [ 79.216117524972006, 9.996786978763316 ], [ 79.198368573859128, 9.973366383050603 ], [ 79.155103145085818, 9.931596888215166 ], [ 79.151457281301248, 9.916122909629813 ], [ 79.128876201545239, 9.894946869864794 ], [ 79.119186893838986, 9.877179267009257 ], [ 79.118381109520726, 9.86660804942837 ], [ 79.123858634576351, 9.865195155725178 ], [ 79.1206711031477, 9.856990655851302 ], [ 78.264699057599998, 9.8513204758 ], [ 78.256088453399997, 10.843251372899999 ], [ 79.259878724900005, 10.8505622091 ], [ 79.263479819867229, 10.196564354779097 ], [ 79.244076614416471, 10.186039132796022 ] ] ] ] } },
{ "type": "Feature", "properties": { "tile": "44PLS", "epsg": 32644, "utm_wkt": "POLYGON ((300000 1200000,300000 1090200,409800 1090200,409800 1200000,300000 1200000))", "utm_bounds": "(300000.0, 1090200.0, 409800.0, 1200000.0)" }, "geometry": { "type": "MultiPolygon", "coordinates": [ [ [ [ 79.852698907037436, 10.833387485360426 ], [ 79.850704992958072, 10.827897309012457 ], [ 79.841286734820812, 10.828006528052562 ], [ 79.852723339416514, 10.826937417467077 ], [ 79.853394194982528, 10.626713712483044 ], [ 79.868654927742725, 10.375563616904639 ], [ 79.882172502151988, 10.323166491198981 ], [ 79.881387126658637, 10.3057622861661 ], [ 79.87644841919527, 10.295354242562759 ], [ 79.85863813740302, 10.28207486924388 ], [ 79.768458319578983, 10.271864587511248 ], [ 79.706000706357329, 10.277638420660502 ], [ 79.63629498865501, 10.294621387880715 ], [ 79.53256608531818, 10.30673181885199 ], [ 79.516623040777162, 10.313406049891277 ], [ 79.389086249162077, 10.317356366192016 ], [ 79.376926171080925, 10.313127847659697 ], [ 79.366586503770222, 10.293957341453263 ], [ 79.331683629419004, 10.285752574566407 ], [ 79.296847317535381, 10.262396167384876 ], [ 79.268877315356846, 10.234305295914634 ], [ 79.266899313136108, 10.228979219559831 ], [ 79.277176763130257, 10.223363916499034 ], [ 79.278601539679912, 10.215525920730101 ], [ 79.264777780794233, 10.197268430552388 ], [ 79.244076614416471, 10.186039132796022 ], [ 79.23813394979156, 10.169799012111003 ], [ 79.238710300793016, 10.156333353557272 ], [ 79.234763679254669, 10.157092036740094 ], [ 79.236804267101263, 10.1542859368398 ], [ 79.228222115016408, 10.147380711379094 ], [ 79.227566374503397, 10.13376003137971 ], [ 79.235557165636749, 10.127994975456987 ], [ 79.227080030201819, 10.119189889798879 ], [ 79.230204231521114, 10.118397597595886 ], [ 79.225801452668037, 10.10108043134753 ], [ 79.228527145157614, 10.090271897864758 ], [ 79.236615030698474, 10.076619086522637 ], [ 79.246019797936796, 10.073770855883225 ], [ 79.251957493979873, 10.06568747224309 ], [ 79.255452566560834, 10.045098214272077 ], [ 79.266014339630615, 10.039305979968105 ], [ 79.244313685209846, 10.027288515971032 ], [ 79.216490556681947, 9.997626933878438 ], [ 79.214783259975462, 10.000128939801758 ], [ 79.216117524972006, 9.996786978763316 ], [ 79.198368573859128, 9.973366383050603 ], [ 79.175645021717429, 9.951428514393429 ], [ 79.170442767300003, 10.8500436098 ], [ 79.852916158795409, 10.852986869752014 ], [ 79.852698907037436, 10.833387485360426 ] ] ] ] } },
{ "type": "Feature", "properties": { "tile": "44PLT", "epsg": 32644, "utm_wkt": "POLYGON ((300000 1300020,300000 1190220,409800 1190220,409800 1300020,300000 1300020))", "utm_bounds": "(300000.0, 1190220.0, 409800.0, 1300020.0)" }, "geometry": { "type": "MultiPolygon", "coordinates": [ [ [ [ 79.760959052433137, 11.623803905198484 ], [ 79.757249744233292, 11.557507073112781 ], [ 79.768648656418023, 11.514847873651505 ], [ 79.778356808084013, 11.506888662141467 ], [ 79.778491208626903, 11.499982111838355 ], [ 79.807417650681685, 11.444139500545079 ], [ 79.822167521421306, 11.382110153597791 ], [ 79.836461026437021, 11.358255950040679 ], [ 79.832120477476948, 11.356564582395801 ], [ 79.843091746670638, 11.351165542234812 ], [ 79.834629754136486, 11.321802220629591 ], [ 79.856541152424583, 11.171405784474958 ], [ 79.854360815465867, 10.983316684627638 ], [ 79.852698907037436, 10.833387485360426 ], [ 79.850704992958072, 10.827897309012457 ], [ 79.841286734820812, 10.828006528052562 ], [ 79.852723339416514, 10.826937417467077 ], [ 79.852932354165759, 10.764554827815624 ], [ 79.170978201500006, 10.7616374707 ], [ 79.164699018299999, 11.754141325399999 ], [ 79.789639506155623, 11.757057835121978 ], [ 79.760959052433137, 11.623803905198484 ] ] ] ] } }
]
}
